ONEWEB-0199             
1 48234U 21031AA  25273.62368088  .00000022  00000+0  24447-4 0  9996
2 48234  87.9064 341.3840 0001714  98.4669 261.6655 13.14502475214162
ONEWEB-0203             
1 48235U 21031AB  25273.69027972 -.00000273  00000+0 -77109-3 0  9990
2 48235  87.9065 341.3725 0001751 107.3825 252.7496 13.14502446214185
ONEWEB-0197             
1 48236U 21031AC  25273.74089888 -.00000203  00000+0 -58311-3 0  9998
2 48236  87.9066 341.3606 0001991  88.9444 271.1914 13.14503137214102
ONEWEB-0194             
1 48237U 21031AD  25273.72041572  .00000277  00000+0  71333-3 0  9993
2 48237  87.9071 341.3799 0001604  99.4378 260.6933 13.14501572214279
ONEWEB-0193             
1 48238U 21031AE  25273.73626791 -.00000250  00000+0 -70861-3 0  9995
2 48238  87.9057 341.3757 0001413  97.2461 262.8829 13.14502785214225
ONEWEB-0191             
1 48239U 21031AF  25273.74737345 -.00000102  00000+0 -31052-3 0  9990
2 48239  87.9077 341.3541 0001833  97.6191 262.5147 13.14501958214084
ONEWEB-0195             
1 48240U 21031AG  25273.72438808  .00000203  00000+0  51276-3 0  9992
2 48240  87.9072 341.3553 0002138 108.0122 252.1241 13.14502340214068
ONEWEB-0201             
1 48241U 21031AH  25273.71262557  .00000206  00000+0  51990-3 0  9994
2 48241  87.9068 341.4070 0002174  96.4277 263.7101 13.14501308214291
